start=new Date('2021-10-11T00:00:00.000Z').valueOf();
sats=[{"PERIAPSIS":"546.110","SITE":"AFETR","SEMIMAJOR_AXIS":"6925.391","MEAN_MOTION_DOT":"0.00000254","RA_OF_ASC_NODE":"224.2218","APOAPSIS":"548.402","BSTAR":"0.00003596900000","MEAN_ELEMENT_THEORY":"SGP4","NORAD_CAT_ID":"48479","OBJECT_ID":"2021-040BD","TLE_LINE1":"1 48479U 21040BD  21283.56752840  .00000254  00000-0  35969-4 0  9999","PERIOD":"95.593","MEAN_ANOMALY":"282.7703","LAUNCH_DATE":"2021-05-09","GP_ID":"186841657","ARG_OF_PERICENTER":"77.3471","TIME_SYSTEM":"UTC","OBJECT_NAME":"STARLINK-2755","EPHEMERIS_TYPE":"0","ECCENTRICITY":"0.00016550","RCS_SIZE":"LARGE","EPOCH":"2021-10-10T13:37:14.453760","COUNTRY_CODE":"US","CLASSIFICATION_TYPE":"U","INCLINATION":"53.0554","TLE_LINE2":"2 48479  53.0554 224.2218 0001655  77.3471 282.7703 15.06386100 23658","REV_AT_EPOCH":"2365","DECAY_DATE":null,"FILE":"3155694","MEAN_MOTION_DDOT":"0.0000000000000","ELEMENT_SET_NO":"999","REF_FRAME":"TEME","MEAN_MOTION":"15.06386100","OBJECT_TYPE":"PAYLOAD","CENTER_NAME":"EARTH"},{"CLASSIFICATION_TYPE":"U","INCLINATION":"53.0549","COUNTRY_CODE":"US","EPOCH":"2021-10-10T13:57:08.298720","RCS_SIZE":"LARGE","ECCENTRICITY":"0.00015310","EPHEMERIS_TYPE":"0","OBJECT_TYPE":"PAYLOAD","CENTER_NAME":"EARTH","MEAN_MOTION":"15.06394062","REF_FRAME":"TEME","ELEMENT_SET_NO":"999","MEAN_MOTION_DDOT":"0.0000000000000","DECAY_DATE":null,"FILE":"3155694","REV_AT_EPOCH":"2351","TLE_LINE2":"2 48480  53.0549 234.1508 0001531  65.5716 294.5432 15.06394062 23511","NORAD_CAT_ID":"48480","MEAN_ELEMENT_THEORY":"SGP4","BSTAR":"-0.00000699840000","APOAPSIS":"548.292","RA_OF_ASC_NODE":"234.1508","MEAN_MOTION_DOT":"-0.00000386","SITE":"AFETR","SEMIMAJOR_AXIS":"6925.367","PERIAPSIS":"546.171","OBJECT_NAME":"STARLINK-2690","TIME_SYSTEM":"UTC","ARG_OF_PERICENTER":"65.5716","GP_ID":"186841443","LAUNCH_DATE":"2021-05-09","PERIOD":"95.593","MEAN_ANOMALY":"294.5432","OBJECT_ID":"2021-040BE","TLE_LINE1":"1 48480U 21040BE  21283.58134605 -.00000386  00000-0 -69984-5 0  9999"},{"BSTAR":"-0.00005385000000","APOAPSIS":"548.349","MEAN_ELEMENT_THEORY":"SGP4","NORAD_CAT_ID":"48481","PERIAPSIS":"546.136","SITE":"AFETR","MEAN_MOTION_DOT":"-0.00001083","SEMIMAJOR_AXIS":"6925.377","RA_OF_ASC_NODE":"234.0881","LAUNCH_DATE":"2021-05-09","GP_ID":"186842104","TIME_SYSTEM":"UTC","ARG_OF_PERICENTER":"59.7905","OBJECT_NAME":"STARLINK-2706","OBJECT_ID":"2021-040BF","TLE_LINE1":"1 48481U 21040BF  21283.59513872 -.00001083  00000-0 -53850-4 0  9997","PERIOD":"95.593","MEAN_ANOMALY":"300.3242","COUNTRY_CODE":"US","INCLINATION":"53.0531","CLASSIFICATION_TYPE":"U","EPHEMERIS_TYPE":"0","ECCENTRICITY":"0.00015980","EPOCH":"2021-10-10T14:16:59.985408","RCS_SIZE":"LARGE","ELEMENT_SET_NO":"999","MEAN_MOTION_DDOT":"0.0000000000000","REF_FRAME":"TEME","MEAN_MOTION":"15.06390608","OBJECT_TYPE":"PAYLOAD","CENTER_NAME":"EARTH","TLE_LINE2":"2 48481  53.0531 234.0881 0001598  59.7905 300.3242 15.06390608 23511","REV_AT_EPOCH":"2351","DECAY_DATE":null,"FILE":"3155694"},{"CLASSIFICATION_TYPE":"U","INCLINATION":"53.0553","COUNTRY_CODE":"US","RCS_SIZE":"LARGE","EPOCH":"2021-10-10T14:07:45.386400","EPHEMERIS_TYPE":"0","ECCENTRICITY":"0.00015360","MEAN_MOTION":"15.06397265","OBJECT_TYPE":"PAYLOAD","CENTER_NAME":"EARTH","MEAN_MOTION_DDOT":"0.0000000000000","ELEMENT_SET_NO":"999","REF_FRAME":"TEME","REV_AT_EPOCH":"2351","FILE":"3155694","DECAY_DATE":null,"TLE_LINE2":"2 48482  53.0553 234.1240 0001536  68.4047 291.7106 15.06397265 23510","NORAD_CAT_ID":"48482","APOAPSIS":"548.286","BSTAR":"0.00003824100000","MEAN_ELEMENT_THEORY":"SGP4","MEAN_MOTION_DOT":"0.00000288","SITE":"AFETR","SEMIMAJOR_AXIS":"6925.357","RA_OF_ASC_NODE":"234.1240","PERIAPSIS":"546.158","ARG_OF_PERICENTER":"68.4047","TIME_SYSTEM":"UTC","OBJECT_NAME":"STARLINK-2525","LAUNCH_DATE":"2021-05-09","GP_ID":"186841890","PERIOD":"95.592","MEAN_ANOMALY":"291.7106","TLE_LINE1":"1 48482U 21040BG  21283.58871975  .00000288  00000-0  38241-4 0  9999","OBJECT_ID":"2021-040BG"},{"REF_FRAME":"TEME","MEAN_MOTION_DDOT":"0.0000000000000","ELEMENT_SET_NO":"999","CENTER_NAME":"EARTH","OBJECT_TYPE":"PAYLOAD","MEAN_MOTION":"15.06399520","TLE_LINE2":"2 48483  53.0549 234.1369 0001554  68.9793 291.1362 15.06399520 23515","FILE":"3155694","DECAY_DATE":null,"REV_AT_EPOCH":"2351","COUNTRY_CODE":"US","INCLINATION":"53.0549","CLASSIFICATION_TYPE":"U","EPHEMERIS_TYPE":"0","ECCENTRICITY":"0.00015540","RCS_SIZE":"LARGE","EPOCH":"2021-10-10T14:02:25.638144","GP_ID":"186841997","LAUNCH_DATE":"2021-05-09","OBJECT_NAME":"STARLINK-2531","ARG_OF_PERICENTER":"68.9793","TIME_SYSTEM":"UTC","OBJECT_ID":"2021-040BH","TLE_LINE1":"1 48483U 21040BH  21283.58501896  .00001120  00000-0  94107-4 0  9991","PERIOD":"95.592","MEAN_ANOMALY":"291.1362","MEAN_ELEMENT_THEORY":"SGP4","APOAPSIS":"548.291","BSTAR":"0.00009410700000","NORAD_CAT_ID":"48483","PERIAPSIS":"546.139","RA_OF_ASC_NODE":"234.1369","SITE":"AFETR","SEMIMAJOR_AXIS":"6925.350","MEAN_MOTION_DOT":"0.00001120"},{"REV_AT_EPOCH":"2351","DECAY_DATE":null,"FILE":"3155694","TLE_LINE2":"2 48484  53.0549 234.2367 0001599  65.4895 294.6260 15.06406333 23515","MEAN_MOTION":"15.06406333","CENTER_NAME":"EARTH","OBJECT_TYPE":"PAYLOAD","MEAN_MOTION_DDOT":"0.0000000000000","ELEMENT_SET_NO":"999","REF_FRAME":"TEME","RCS_SIZE":"LARGE","EPOCH":"2021-10-10T13:29:13.400160","ECCENTRICITY":"0.00015990","EPHEMERIS_TYPE":"0","CLASSIFICATION_TYPE":"U","INCLINATION":"53.0549","COUNTRY_CODE":"US","PERIOD":"95.592","MEAN_ANOMALY":"294.6260","OBJECT_ID":"2021-040BJ","TLE_LINE1":"1 48484U 21040BJ  21283.56196065  .00000292  00000-0  38509-4 0  9991","ARG_OF_PERICENTER":"65.4895","TIME_SYSTEM":"UTC","OBJECT_NAME":"STARLINK-2696","LAUNCH_DATE":"2021-05-09","GP_ID":"186841783","SEMIMAJOR_AXIS":"6925.329","SITE":"AFETR","MEAN_MOTION_DOT":"0.00000292","RA_OF_ASC_NODE":"234.2367","PERIAPSIS":"546.087","NORAD_CAT_ID":"48484","APOAPSIS":"548.302","BSTAR":"0.00003850900000","MEAN_ELEMENT_THEORY":"SGP4"},{"APOAPSIS":"548.184","BSTAR":"0.00025464000000","MEAN_ELEMENT_THEORY":"SGP4","NORAD_CAT_ID":"48485","PERIAPSIS":"546.266","SEMIMAJOR_AXIS":"6925.360","SITE":"AFETR","MEAN_MOTION_DOT":"0.00003513","RA_OF_ASC_NODE":"234.1073","LAUNCH_DATE":"2021-05-09","GP_ID":"186841765","ARG_OF_PERICENTER":"78.6430","TIME_SYSTEM":"UTC","OBJECT_NAME":"STARLINK-2500","TLE_LINE1":"1 48485U 21040BK  21283.59239444  .00003513  00000-0  25464-3 0  9998","OBJECT_ID":"2021-040BK","MEAN_ANOMALY":"281.4715","PERIOD":"95.592","COUNTRY_CODE":"US","CLASSIFICATION_TYPE":"U","INCLINATION":"53.0548","EPHEMERIS_TYPE":"0","ECCENTRICITY":"0.00013850","RCS_SIZE":"LARGE","EPOCH":"2021-10-10T14:13:02.879616","MEAN_MOTION_DDOT":"0.0000000000000","ELEMENT_SET_NO":"999","REF_FRAME":"TEME","MEAN_MOTION":"15.06396265","OBJECT_TYPE":"PAYLOAD","CENTER_NAME":"EARTH","TLE_LINE2":"2 48485  53.0548 234.1073 0001385  78.6430 281.4715 15.06396265 23513","REV_AT_EPOCH":"2351","FILE":"3155694","DECAY_DATE":null},{"SEMIMAJOR_AXIS":"6925.367","SITE":"AFETR","MEAN_MOTION_DOT":"-0.00000458","RA_OF_ASC_NODE":"234.0892","PERIAPSIS":"546.138","NORAD_CAT_ID":"48486","APOAPSIS":"548.326","BSTAR":"-0.00001185600000","MEAN_ELEMENT_THEORY":"SGP4","PERIOD":"95.593","MEAN_ANOMALY":"286.0465","OBJECT_ID":"2021-040BL","TLE_LINE1":"1 48486U 21040BL  21283.59608638 -.00000458  00000-0 -11856-4 0  9992","TIME_SYSTEM":"UTC","ARG_OF_PERICENTER":"74.0698","OBJECT_NAME":"STARLINK-2496","LAUNCH_DATE":"2021-05-09","GP_ID":"186841550","EPOCH":"2021-10-10T14:18:21.863232","RCS_SIZE":"LARGE","EPHEMERIS_TYPE":"0","ECCENTRICITY":"0.00015800","INCLINATION":"53.0529","CLASSIFICATION_TYPE":"U","COUNTRY_CODE":"US","REV_AT_EPOCH":"2351","DECAY_DATE":null,"FILE":"3155694","TLE_LINE2":"2 48486  53.0529 234.0892 0001580  74.0698 286.0465 15.06394060 23518","MEAN_MOTION":"15.06394060","OBJECT_TYPE":"PAYLOAD","CENTER_NAME":"EARTH","ELEMENT_SET_NO":"999","MEAN_MOTION_DDOT":"0.0000000000000","REF_FRAME":"TEME"},{"PERIAPSIS":"546.300","MEAN_MOTION_DOT":"0.00000116","SITE":"AFETR","SEMIMAJOR_AXIS":"6925.362","RA_OF_ASC_NODE":"234.0783","BSTAR":"0.00002667000000","APOAPSIS":"548.153","MEAN_ELEMENT_THEORY":"SGP4","NORAD_CAT_ID":"48487","OBJECT_ID":"2021-040BM","TLE_LINE1":"1 48487U 21040BM  21283.59977406  .00000116  00000-0  26670-4 0  9994","MEAN_ANOMALY":"275.0282","PERIOD":"95.592","LAUNCH_DATE":"2021-05-09","GP_ID":"186841658","ARG_OF_PERICENTER":"85.0860","TIME_SYSTEM":"UTC","OBJECT_NAME":"STARLINK-2494","EPHEMERIS_TYPE":"0","ECCENTRICITY":"0.00013380","RCS_SIZE":"LARGE","EPOCH":"2021-10-10T14:23:40.478784","COUNTRY_CODE":"US","INCLINATION":"53.0561","CLASSIFICATION_TYPE":"U","TLE_LINE2":"2 48487  53.0561 234.0783 0001338  85.0860 275.0282 15.06395677 23529","REV_AT_EPOCH":"2352","DECAY_DATE":null,"FILE":"3155694","MEAN_MOTION_DDOT":"0.0000000000000","ELEMENT_SET_NO":"999","REF_FRAME":"TEME","MEAN_MOTION":"15.06395677","CENTER_NAME":"EARTH","OBJECT_TYPE":"PAYLOAD"},{"EPOCH":"2021-10-10T21:48:10.603584","RCS_SIZE":"LARGE","ECCENTRICITY":"0.00018530","EPHEMERIS_TYPE":"0","INCLINATION":"53.0597","CLASSIFICATION_TYPE":"U","COUNTRY_CODE":"US","FILE":"3155694","DECAY_DATE":null,"REV_AT_EPOCH":"2242","TLE_LINE2":"2 48553  53.0597 162.6854 0001853  62.2139 297.9038 15.06401879 22427","OBJECT_TYPE":"PAYLOAD","CENTER_NAME":"EARTH","MEAN_MOTION":"15.06401879","REF_FRAME":"TEME","ELEMENT_SET_NO":"999","MEAN_MOTION_DDOT":"0.0000000000000","RA_OF_ASC_NODE":"162.6854","MEAN_MOTION_DOT":"0.00002076","SITE":"AFETR","SEMIMAJOR_AXIS":"6925.343","PERIAPSIS":"545.925","NORAD_CAT_ID":"48553","MEAN_ELEMENT_THEORY":"SGP4","BSTAR":"0.00015822000000","APOAPSIS":"548.491","PERIOD":"95.592","MEAN_ANOMALY":"297.9038","OBJECT_ID":"2021-041A","TLE_LINE1":"1 48553U 21041A   21283.90845606  .00002076  00000-0  15822-3 0  9993","OBJECT_NAME":"STARLINK-2063","TIME_SYSTEM":"UTC","ARG_OF_PERICENTER":"62.2139","GP_ID":"186842114","LAUNCH_DATE":"2021-05-15"}];
